NORAD_CAT_ID,OBJECT_NAME,OBJECT_TYPE,EPOCH,MEAN_MOTION,ECCENTRICITY,INCLINATION,RA_OF_ASC_NODE,ARG_OF_PERICENTER,MEAN_ANOMALY,BSTAR,MEAN_MOTION_DOT,MEAN_MOTION_DDOT,TLE_LINE0,TLE_LINE1,TLE_LINE2,SEMIMAJOR_AXIS,PERIOD,APOGEE,PERIGEE,DECAYED
51143.0,STARLINK-3184,PAYLOAD,2022-10-02 10:19:47,15.08827885,0.000167,53.2169,179.7217,68.6091,291.5079,-1.7199000000000006e-05,-5.62e-06,0.0,0 STARLINK-3184,1 51143U 22005AR  22275.43041137 -.00000562  00000-0 -17199-4 0  9990,2 51143  53.2169 179.7217 0001670  68.6091 291.5079 15.08827885 40357,6917.917,95.438,540.938,538.627,0.0
51143.0,STARLINK-3184,PAYLOAD,2022-10-03 00:38:14,15.08844283,0.0001567,53.2163,177.0458,67.1541,292.9616,-7.115399999999999e-05,-1.42e-05,0.0,0 STARLINK-3184,1 51143U 22005AR  22276.02655685 -.00001420  00000-0 -71154-4 0  9990,2 51143  53.2163 177.0458 0001567  67.1541 292.9616 15.08844283 40441,6917.8669999999975,95.437,540.816,538.648,0.0
51143.0,STARLINK-3184,PAYLOAD,2022-10-03 10:10:32,15.0886207,0.0001665,53.2166,175.2605,69.7249,290.3922,9.2114e-05,1.179e-05,0.0,0 STARLINK-3184,1 51143U 22005AR  22276.42398574  .00001179  00000-0  92114-4 0  9993,2 51143  53.2166 175.2605 0001665  69.7249 290.3922 15.08862070 39398,6917.813,95.436,540.83,538.526,0.0
51143.0,STARLINK-3184,PAYLOAD,2022-10-03 18:07:28,15.08857866,0.0001648,53.216,173.7736,62.5328,297.5832,0.00031613,4.749e-05,0.0,0 STARLINK-3184,1 51143U 22005AR  22276.75518861  .00004749  00000-0  31613-3 0  9994,2 51143  53.2160 173.7736 0001648  62.5328 297.5832 15.08857866 39442,6917.826,95.436,540.831,538.5509999999998,0.0
51143.0,STARLINK-3184,PAYLOAD,2022-10-04 10:01:19,15.08856566,0.0001483,53.2141,170.7978,57.8084,302.3052,0.00027167,4.04e-05,0.0,0 STARLINK-3184,1 51143U 22005AR  22277.41758485  .00004040  00000-0  27167-3 0  9999,2 51143  53.2141 170.7978 0001483  57.8084 302.3052 15.08856566 39545,6917.83,95.437,540.721,538.669,0.0
51143.0,STARLINK-3184,PAYLOAD,2022-10-04 19:33:38,15.08842149,0.0001440999999999,53.2143,169.015,64.2686,295.8454,-6.759399999999999e-05,-1.364e-05,0.0,0 STARLINK-3184,1 51143U 22005AR  22277.81502714 -.00001364  00000-0 -67594-4 0  9992,2 51143  53.2143 169.0150 0001441  64.2686 295.8454 15.08842149 39605,6917.874,95.437,540.736,538.742,0.0
51143.0,STARLINK-3184,PAYLOAD,2022-10-05 01:55:11,15.08829641,0.0001541999999999,53.2149,167.8257,66.0195,294.0959,-0.00020662,-3.574e-05,0.0,0 STARLINK-3184,1 51143U 22005AR  22278.07999613 -.00003574  00000-0 -20662-3 0  9998,2 51143  53.2149 167.8257 0001542  66.0195 294.0959 15.08829641 40753,6917.9119999999975,95.438,540.844,538.71,0.0
51143.0,STARLINK-3184,PAYLOAD,2022-10-05 11:27:30,15.08839484,0.0001527,53.2147,166.0426,64.2758,295.8391,-0.00014029,-2.52e-05,0.0,0 STARLINK-3184,1 51143U 22005AR  22278.47743108 -.00002520  00000-0 -14029-3 0  9998,2 51143  53.2147 166.0426 0001527  64.2758 295.8391 15.08839484 39706,6917.882,95.438,540.803,538.691,0.0
51143.0,STARLINK-3184,PAYLOAD,2022-10-05 20:59:49,15.08841632,0.0001383,53.2155,164.2575,66.5553,293.5584,-6.3358e-05,-1.296e-05,0.0,0 STARLINK-3184,1 51143U 22005AR  22278.87487606 -.00001296  00000-0 -63358-4 0  9999,2 51143  53.2155 164.2575 0001383  66.5553 293.5584 15.08841632 39761,6917.875,95.437,540.697,538.784,0.0
51143.0,STARLINK-3184,PAYLOAD,2022-10-06 01:45:59,15.08836325,0.0001132,53.2154,163.3652,77.382,282.7299,-0.00012239,-2.235e-05,0.0,0 STARLINK-3184,1 51143U 22005AR  22279.07360005 -.00002235  00000-0 -12239-3 0  9990,2 51143  53.2154 163.3652 0001132  77.3820 282.7299 15.08836325 40909,6917.892,95.438,540.54,538.974,0.0
51143.0,STARLINK-3184,PAYLOAD,2022-10-06 09:42:54,15.08839743,0.0001171999999999,53.2153,161.8788,78.1152,281.9971,9.499e-07,-2.73e-06,0.0,0 STARLINK-3184,1 51143U 22005AR  22279.40479693 -.00000273  00000-0  94990-6 0  9997,2 51143  53.2153 161.8788 0001172  78.1152 281.9971 15.08839743 39848,6917.880999999999,95.438,540.557,538.935,0.0
51143.0,STARLINK-3184,PAYLOAD,2022-10-06 16:04:26,15.08836927,0.0001135,53.2162,160.6899,55.5034,304.6065,9.6938e-05,1.255e-05,0.0,0 STARLINK-3184,1 51143U 22005AR  22279.66975640  .00001255  00000-0  96938-4 0  9990,2 51143  53.2162 160.6899 0001135  55.5034 304.6065 15.08836927 39887,6917.89,95.438,540.54,538.97,0.0
51143.0,STARLINK-3184,PAYLOAD,2022-10-06 22:25:59,15.08836987,0.0001299,53.2157,159.4999,53.8949,306.2164,9.000200000000001e-05,1.145e-05,0.0,0 STARLINK-3184,1 51143U 22005AR  22279.93471824  .00001145  00000-0  90002-4 0  9999,2 51143  53.2157 159.4999 0001299  53.8949 306.2164 15.08836987 39924,6917.89,95.438,540.653,538.856,0.0
51143.0,STARLINK-3184,PAYLOAD,2022-10-07 20:41:23,15.08839575,0.0001565999999999,53.2155,155.3376,57.9031,302.2113,0.00021389,3.118e-05,0.0,0 STARLINK-3184,1 51143U 22005AR  22280.86207789  .00003118  00000-0  21389-3 0  9993,2 51143  53.2155 155.3376 0001566  57.9031 302.2113 15.08839575 40063,6917.882,95.438,540.83,538.663,0.0
51143.0,STARLINK-3184,PAYLOAD,2022-10-08 01:27:32,15.08845936,0.0001483,53.2145,154.4447,60.8648,299.2493,0.00023178,3.403e-05,0.0,0 STARLINK-3184,1 51143U 22005AR  22281.06079783  .00003403  00000-0  23178-3 0  9992,2 51143  53.2145 154.4447 0001483  60.8648 299.2493 15.08845936 41207,6917.861999999999,95.437,540.753,538.701,0.0
51143.0,STARLINK-3184,PAYLOAD,2022-10-08 20:32:11,15.0883176,0.0001267,53.2151,150.8707,73.0777,287.0354,-1.6930999999999998e-05,-5.57e-06,0.0,0 STARLINK-3184,1 51143U 22005AR  22281.85568802 -.00000557  00000-0 -16931-4 0  9993,2 51143  53.2151 150.8707 0001267  73.0777 287.0354 15.08831760 41326,6917.906,95.438,540.6469999999998,538.894,0.0
51143.0,STARLINK-3184,PAYLOAD,2022-10-09 01:18:21,15.08824078,0.0001558,53.2155,149.9817,66.2253,293.8902,-5.3695e-05,-1.142e-05,0.0,0 STARLINK-3184,1 51143U 22005AR  22282.05441599 -.00001142  00000-0 -53695-4 0  9998,2 51143  53.2155 149.9817 0001558  66.2253 293.8902 15.08824078 41358,6917.929,95.439,540.872,538.716,0.0
51143.0,STARLINK-3184,PAYLOAD,2022-10-09 10:50:39,15.08835158,0.0001457,53.2157,148.1998,60.4468,299.6669,1.5197e-05,-4.6e-07,0.0,0 STARLINK-3184,1 51143U 22005AR  22282.45184790 -.00000046  00000-0  15197-4 0  9995,2 51143  53.2157 148.1998 0001457  60.4468 299.6669 15.08835158 41415,6917.895,95.438,540.768,538.752,0.0
51143.0,STARLINK-3184,PAYLOAD,2022-10-09 18:47:34,15.08846974,0.0001513,53.2156,146.7124,63.0714,297.0433,0.0001299,1.7800000000000002e-05,0.0,0 STARLINK-3184,1 51143U 22005AR  22282.78303749  .00001780  00000-0  12990-3 0  9990,2 51143  53.2156 146.7124 0001513  63.0714 297.0433 15.08846974 41469,6917.859,95.437,540.771,538.677,0.0
51143.0,STARLINK-3184,PAYLOAD,2022-10-09 20:22:57,15.08845963,0.0001473,53.2158,146.4153,63.3035,296.8108,0.0001197,1.618e-05,0.0,0 STARLINK-3184,1 51143U 22005AR  22282.84927889  .00001618  00000-0  11970-3 0  9991,2 51143  53.2158 146.4153 0001473  63.3035 296.8108 15.08845963 40365,6917.861999999999,95.437,540.746,538.7080000000002,0.0
51143.0,STARLINK-3184,PAYLOAD,2022-10-10 01:09:07,15.08840581,0.0001453,53.2155,145.5228,66.7332,293.3813,6.1577e-05,6.92e-06,0.0,0 STARLINK-3184,1 51143U 22005AR  22283.04800316  .00000692  00000-0  61577-4 0  9999,2 51143  53.2155 145.5228 0001453  66.7332 293.3813 15.08840581 41503,6917.879,95.438,540.749,538.738,0.0
51143.0,STARLINK-3184,PAYLOAD,2022-10-10 12:16:49,15.08832057,0.0001389,53.2153,143.4418,62.4258,297.6876,9.5564e-05,1.233e-05,0.0,0 STARLINK-3184,1 51143U 22005AR  22283.51168866  .00001233  00000-0  95564-4 0  9993,2 51143  53.2153 143.4418 0001389  62.4258 297.6876 15.08832057 41579,6917.905,95.438,540.731,538.809,0.0
51143.0,STARLINK-3184,PAYLOAD,2022-10-10 21:49:08,15.08829965,0.0001530999999999,53.2152,141.6573,65.6341,294.4811,0.00014196,1.971e-05,0.0,0 STARLINK-3184,1 51143U 22005AR  22283.90912925  .00001971  00000-0  14196-3 0  9999,2 51143  53.2152 141.6573 0001531  65.6341 294.4811 15.08829965 40529,6917.911,95.438,540.835,538.717,0.0
51143.0,STARLINK-3184,PAYLOAD,2022-10-11 08:56:51,15.08822689,0.0001546,53.2154,139.5765,64.2728,295.8423,2.4061e-05,9.5e-07,0.0,0 STARLINK-3184,1 51143U 22005AR  22284.37282121  .00000095  00000-0  24061-4 0  9998,2 51143  53.2154 139.5765 0001546  64.2728 295.8423 15.08822689 40597,6917.933000000001,95.439,540.868,538.729,0.0
51143.0,STARLINK-3184,PAYLOAD,2022-10-11 16:53:46,15.08838189,0.0001699,53.2147,138.0889,70.5347,289.5828,-3.4627e-05,-8.39e-06,0.0,0 STARLINK-3184,1 51143U 22005AR  22284.70401470 -.00000839  00000-0 -34627-4 0  9992,2 51143  53.2147 138.0889 0001699  70.5347 289.5828 15.08838189 41756,6917.886,95.438,540.9259999999998,538.576,0.0
51143.0,STARLINK-3184,PAYLOAD,2022-10-12 07:12:15,15.08833214,0.0001693,53.215,135.4122,68.1427,291.9745,4.2924e-06,-2.2e-06,0.0,0 STARLINK-3184,1 51143U 22005AR  22285.30017688 -.00000220  00000-0  42924-5 0  9996,2 51143  53.2150 135.4122 0001693  68.1427 291.9745 15.08833214 40733,6917.901,95.438,540.937,538.595,0.0
51143.0,STARLINK-3184,PAYLOAD,2022-10-12 16:44:33,15.08839495,0.0001385999999999,53.2154,133.6293,62.7397,297.3736,7.8222e-05,9.57e-06,0.0,0 STARLINK-3184,1 51143U 22005AR  22285.69761037  .00000957  00000-0  78222-4 0  9997,2 51143  53.2154 133.6293 0001386  62.7397 297.3736 15.08839495 40794,6917.882,95.438,540.706,538.788,0.0
51143.0,STARLINK-3184,PAYLOAD,2022-10-13 07:03:02,15.08830136,0.0001874,53.2143,130.9519,70.717,289.4024,8.3057e-05,1.034e-05,0.0,0 STARLINK-3184,1 51143U 22005AR  22286.29377867  .00001034  00000-0  83057-4 0  9997,2 51143  53.2143 130.9519 0001874  70.7170 289.4024 15.08830136 41991,6917.911,95.438,541.072,538.479,0.0
51143.0,STARLINK-3184,PAYLOAD,2022-10-13 19:46:07,15.08839868,0.0001644,53.2165,128.5715,18.0082,342.0968,6.4169e-05,7.33e-06,0.0,0 STARLINK-3184,1 51143U 22005AR  22286.82369290  .00000733  00000-0  64169-4 0  9995,2 51143  53.2165 128.5715 0001644  18.0082 342.0968 15.08839868 40968,6917.880999999999,95.438,540.883,538.6080000000002,0.0
